[{"OBJECT_NAME":"STARLINK-5700","OBJECT_ID":"2023-020AQ","EPOCH":"2026-03-08T20:49:44.943456","MEAN_MOTION":15.02911944,"ECCENTRICITY":0.00011702,"INCLINATION":43.0074,"RA_OF_ASC_NODE":356.305,"ARG_OF_PERICENTER":316.9525,"MEAN_ANOMALY":43.1226,"EPHEMERIS_TYPE":0,"CLASSIFICATION_TYPE":"U","NORAD_CAT_ID":55607,"ELEMENT_SET_NO":999,"REV_AT_EPOCH":16894,"BSTAR":0.0032081373,"MEAN_MOTION_DOT":0.00043841,"MEAN_MOTION_DDOT":0},{"OBJECT_NAME":"CZ-6A DEB","OBJECT_ID":"2022-151ACK","EPOCH":"2026-03-09T17:07:55.484832","MEAN_MOTION":14.91029585,"ECCENTRICITY":0.00541971,"INCLINATION":98.6318,"RA_OF_ASC_NODE":144.964,"ARG_OF_PERICENTER":183.961,"MEAN_ANOMALY":176.1184,"EPHEMERIS_TYPE":0,"CLASSIFICATION_TYPE":"U","NORAD_CAT_ID":56267,"ELEMENT_SET_NO":999,"REV_AT_EPOCH":16429,"BSTAR":0.0040603804,"MEAN_MOTION_DOT":0.00041466,"MEAN_MOTION_DDOT":0}]
